NORAD_CAT_ID,OBJECT_NAME,OBJECT_TYPE,EPOCH,MEAN_MOTION,ECCENTRICITY,INCLINATION,RA_OF_ASC_NODE,ARG_OF_PERICENTER,MEAN_ANOMALY,BSTAR,MEAN_MOTION_DOT,MEAN_MOTION_DDOT,TLE_LINE0,TLE_LINE1,TLE_LINE2,SEMIMAJOR_AXIS,PERIOD,APOGEE,PERIGEE,DECAYED
52665.0,STARLINK-4064,PAYLOAD,2024-07-13 16:26:08,15.0884304,0.0001601,53.2182,345.6031,113.7498,246.3662,9.8142e-05,1.274e-05,0.0,0 STARLINK-4064,1 52665U 22053K   24195.68481535  .00001274  00000-0  98142-4 0  9999,2 52665  53.2182 345.6031 0001601 113.7498 246.3662 15.08843040119867,6917.871,95.437,540.844,538.629,0.0
52665.0,STARLINK-4064,PAYLOAD,2024-07-14 14:41:32,15.08845486,0.0001219,53.2183,341.4425,106.5493,253.5633,0.00033334,5.022e-05,0.0,0 STARLINK-4064,1 52665U 22053K   24196.61217656  .00005022  00000-0  33334-3 0  9990,2 52665  53.2183 341.4425 0001219 106.5493 253.5633 15.08845486120001,6917.864,95.437,540.572,538.885,0.0
52665.0,STARLINK-4064,PAYLOAD,2024-07-14 16:16:55,15.08842754,0.0001023,53.2188,341.1465,93.2269,266.884,0.00026239,3.891e-05,0.0,0 STARLINK-4064,1 52665U 22053K   24196.67841763  .00003891  00000-0  26239-3 0  9996,2 52665  53.2188 341.1465 0001023  93.2269 266.8840 15.08842754120016,6917.872,95.437,540.445,539.029,0.0
52665.0,STARLINK-4064,PAYLOAD,2024-07-15 12:56:56,15.08839922,0.0001179,53.2186,337.2787,98.2064,261.9062,0.00022126,3.235e-05,0.0,0 STARLINK-4064,1 52665U 22053K   24197.53953958  .00003235  00000-0  22126-3 0  9995,2 52665  53.2186 337.2787 0001179  98.2064 261.9062 15.08839922120146,6917.881,95.438,540.561,538.93,0.0
52665.0,STARLINK-4064,PAYLOAD,2024-07-15 14:32:19,15.08838896,0.0001162,53.2186,336.9816,97.2822,262.8302,0.00017929,2.567e-05,0.0,0 STARLINK-4064,1 52665U 22053K   24197.60577974  .00002567  00000-0  17929-3 0  9995,2 52665  53.2186 336.9816 0001162  97.2822 262.8302 15.08838896120155,6917.884,95.438,540.553,538.945,0.0
52665.0,STARLINK-4064,PAYLOAD,2024-07-15 16:07:42,15.08834567,0.0001107,53.2174,336.6871,86.5577,273.5542,0.00014731,2.057e-05,0.0,0 STARLINK-4064,1 52665U 22053K   24197.67202268  .00002057  00000-0  14731-3 0  9995,2 52665  53.2174 336.6871 0001107  86.5577 273.5542 15.08834567120164,6917.897,95.438,540.528,538.996,0.0
52665.0,STARLINK-4064,PAYLOAD,2024-07-16 12:47:42,15.08847626,0.0001284,53.2175,332.8219,77.8402,282.2734,-0.00029674,-5.008e-05,0.0,0 STARLINK-4064,1 52665U 22053K   24198.53313575 -.00005008  00000-0 -29674-3 0  9998,2 52665  53.2175 332.8219 0001284  77.8402 282.2734 15.08847626120299,6917.857,95.437,540.61,538.834,0.0
52665.0,STARLINK-4064,PAYLOAD,2024-07-16 14:23:06,15.08847705,0.0001285,53.2174,332.5246,78.2414,281.8722,-0.00027264,-4.625e-05,0.0,0 STARLINK-4064,1 52665U 22053K   24198.59937554 -.00004625  00000-0 -27264-3 0  9990,2 52665  53.2174 332.5246 0001285  78.2414 281.8722 15.08847705120306,6917.857,95.437,540.611,538.833,0.0
52665.0,STARLINK-4064,PAYLOAD,2024-07-16 15:58:29,15.08845519,0.0001059,53.2183,332.2255,85.0271,275.0843,1.6194e-05,-3e-07,0.0,0 STARLINK-4064,1 52665U 22053K   24198.66561858 -.00000030  00000-0  16194-4 0  9994,2 52665  53.2183 332.2255 0001059  85.0271 275.0843 15.08845519120310,6917.864,95.437,540.461,538.996,0.0
52665.0,STARLINK-4064,PAYLOAD,2024-07-17 12:38:30,15.08834888,8.81e-05,53.2179,328.3552,117.226,242.8822,0.0001068,1.412e-05,0.0,0 STARLINK-4064,1 52665U 22053K   24199.52674481  .00001412  00000-0  10680-3 0  9994,2 52665  53.2179 328.3552 0000881 117.2260 242.8822 15.08834888120449,6917.896,95.438,540.37,539.152,0.0
52665.0,STARLINK-4064,PAYLOAD,2024-07-17 14:13:54,15.08827461,0.0001162,53.2177,328.0633,92.1192,267.9933,-4.1853e-05,-9.54e-06,0.0,0 STARLINK-4064,1 52665U 22053K   24199.59298861 -.00000954  00000-0 -41853-4 0  9994,2 52665  53.2177 328.0633 0001162  92.1192 267.9933 15.08827461120453,6917.919,95.438,540.588,538.98,0.0
52665.0,STARLINK-4064,PAYLOAD,2024-07-17 15:49:17,15.0882663,0.0001119,53.2183,327.7661,93.1699,266.9421,2.4398e-05,1e-06,0.0,0 STARLINK-4064,1 52665U 22053K   24199.65923323  .00000100  00000-0  24398-4 0  9995,2 52665  53.2183 327.7661 0001119  93.1699 266.9421 15.08826630120461,6917.921,95.438,540.56,539.012,0.0
52665.0,STARLINK-4064,PAYLOAD,2024-07-18 12:29:18,15.08835908,9.03e-05,53.2173,323.8964,90.4008,269.7088,6.2716e-05,7.1e-06,0.0,0 STARLINK-4064,1 52665U 22053K   24200.52034988  .00000710  00000-0  62716-4 0  9997,2 52665  53.2173 323.8964 0000903  90.4008 269.7088 15.08835908120599,6917.893,95.438,540.383,539.133,0.0
52665.0,STARLINK-4064,PAYLOAD,2024-07-18 14:04:41,15.08839758,0.0001167,53.218,323.6035,110.2007,249.9111,8.7673e-05,1.108e-05,0.0,0 STARLINK-4064,1 52665U 22053K   24200.58658700  .00001108  00000-0  87673-4 0  9998,2 52665  53.2180 323.6035 0001167 110.2007 249.9111 15.08839758120603,6917.881,95.438,540.553,538.939,0.0
52665.0,STARLINK-4064,PAYLOAD,2024-07-18 15:40:04,15.08841646,0.0001096,53.2179,323.306,107.5323,252.5789,0.00010738,1.422e-05,0.0,0 STARLINK-4064,1 52665U 22053K   24200.65282578  .00001422  00000-0  10738-3 0  9998,2 52665  53.2179 323.3060 0001096 107.5323 252.5789 15.08841646120618,6917.875,95.437,540.499,538.982,0.0
52665.0,STARLINK-4064,PAYLOAD,2024-07-19 12:20:05,15.08835941,9.18e-05,53.2171,319.4379,99.2688,260.8407,0.00017148,2.442e-05,0.0,0 STARLINK-4064,1 52665U 22053K   24201.51394903  .00002442  00000-0  17148-3 0  9995,2 52665  53.2171 319.4379 0000918  99.2688 260.8407 15.08835941120746,6917.893,95.438,540.393,539.123,0.0
52665.0,STARLINK-4064,PAYLOAD,2024-07-19 13:55:28,15.08833099,9.35e-05,53.217,319.1402,93.8909,266.219,0.00038767,5.886e-05,0.0,0 STARLINK-4064,1 52665U 22053K   24201.58019134  .00005886  00000-0  38767-3 0  9997,2 52665  53.2170 319.1402 0000935  93.8909 266.2190 15.08833099120756,6917.901,95.438,540.413,539.12,0.0
52665.0,STARLINK-4064,PAYLOAD,2024-07-19 15:30:50,15.08850314,8.54e-05,53.2168,318.8426,98.5225,261.5864,-5.0145e-05,-1.086e-05,0.0,0 STARLINK-4064,1 52665U 22053K   24201.64642173 -.00001086  00000-0 -50145-4 0  9994,2 52665  53.2168 318.8426 0000854  98.5225 261.5864 15.08850314120764,6917.849,95.437,540.305,539.123,0.0
52665.0,STARLINK-4064,PAYLOAD,2024-07-20 12:10:52,15.0883077,7.81e-05,53.2178,314.9766,91.7251,268.3831,-9.0994e-05,-1.735e-05,0.0,0 STARLINK-4064,1 52665U 22053K   24202.50755249 -.00001735  00000-0 -90994-4 0  9996,2 52665  53.2178 314.9766 0000781  91.7251 268.3831 15.08830770120899,6917.909,95.438,540.314,539.233,0.0
52665.0,STARLINK-4064,PAYLOAD,2024-07-20 13:46:15,15.08831446,8.89e-05,53.2176,314.6793,92.1891,267.9203,-8.0329e-05,-1.566e-05,0.0,0 STARLINK-4064,1 52665U 22053K   24202.57379265 -.00001566  00000-0 -80329-4 0  9996,2 52665  53.2176 314.6793 0000889  92.1891 267.9203 15.08831446120909,6917.907,95.438,540.387,539.157,0.0
52665.0,STARLINK-4064,PAYLOAD,2024-07-21 00:53:56,15.08850414,0.0001276,53.2172,312.5968,97.8703,262.2433,0.00021162,3.083e-05,0.0,0 STARLINK-4064,1 52665U 22053K   24203.03746360  .00003083  00000-0  21162-3 0  9995,2 52665  53.2172 312.5968 0001276  97.8703 262.2433 15.08850414120977,6917.849,95.437,540.596,538.831,0.0
52665.0,STARLINK-4064,PAYLOAD,2024-07-21 12:01:39,15.08838224,0.0001268,53.2175,310.5146,103.3135,256.7999,-1.7357e-05,-5.64e-06,0.0,0 STARLINK-4064,1 52665U 22053K   24203.50114950 -.00000564  00000-0 -17357-4 0  9996,2 52665  53.2175 310.5146 0001268 103.3135 256.7999 15.08838224121048,6917.886,95.438,540.628,538.874,0.0
52665.0,STARLINK-4064,PAYLOAD,2024-07-21 13:37:02,15.08839802,0.0001357,53.2174,310.2172,102.0937,258.0208,1.2118e-05,-9.5e-07,0.0,0 STARLINK-4064,1 52665U 22053K   24203.56738922 -.00000095  00000-0  12118-4 0  9991,2 52665  53.2174 310.2172 0001357 102.0937 258.0208 15.08839802121050,6917.881,95.438,540.685,538.807,0.0
52665.0,STARLINK-4064,PAYLOAD,2024-07-22 10:17:03,15.08840993,0.000114,53.2145,306.3567,85.2174,274.8948,0.00028557,4.26e-05,0.0,0 STARLINK-4064,1 52665U 22053K   24204.42851115  .00004260  00000-0  28557-3 0  9997,2 52665  53.2145 306.3567 0001140  85.2174 274.8948 15.08840993121181,6917.877,95.437,540.531,538.954,0.0
52665.0,STARLINK-4064,PAYLOAD,2024-07-22 16:38:35,15.08844564,0.0001358,53.2163,305.1641,100.1995,259.9151,0.00018402,2.642e-05,0.0,0 STARLINK-4064,1 52665U 22053K   24204.69346908  .00002642  00000-0  18402-3 0  9995,2 52665  53.2163 305.1641 0001358 100.1995 259.9151 15.08844564121223,6917.866,95.437,540.671,538.792,0.0
52665.0,STARLINK-4064,PAYLOAD,2024-07-23 13:18:37,15.0883109,0.0001373,53.2159,301.3005,86.7726,273.3423,0.00036502,5.525e-05,0.0,0 STARLINK-4064,1 52665U 22053K   24205.55459998  .00005525  00000-0  36502-3 0  9999,2 52665  53.2159 301.3005 0001373  86.7726 273.3423 15.08831090121354,6917.908,95.438,540.722,538.823,0.0
52665.0,STARLINK-4064,PAYLOAD,2024-07-24 09:58:37,15.08837333,0.0001295,53.2149,297.4327,76.1259,283.9877,5.2593e-05,5.49e-06,0.0,0 STARLINK-4064,1 52665U 22053K   24206.41571608  .00000549  00000-0  52593-4 0  9998,2 52665  53.2149 297.4327 0001295  76.1259 283.9877 15.08837333121482,6917.889,95.438,540.649,538.858,0.0
52665.0,STARLINK-4064,PAYLOAD,2024-07-25 06:38:38,15.08838256,0.0001215,53.2157,293.5679,74.1146,285.998,0.00011333,1.516e-05,0.0,0 STARLINK-4064,1 52665U 22053K   24207.27683674  .00001516  00000-0  11333-3 0  9991,2 52665  53.2157 293.5679 0001215  74.1146 285.9980 15.08838256121610,6917.886,95.438,540.591,538.91,0.0
52665.0,STARLINK-4064,PAYLOAD,2024-07-25 09:49:25,15.08838236,0.0001144,53.2169,292.973,73.7673,286.3444,0.0001342,1.849e-05,0.0,0 STARLINK-4064,1 52665U 22053K   24207.40931791  .00001849  00000-0  13420-3 0  9990,2 52665  53.2169 292.9730 0001144  73.7673 286.3444 15.08838236121635,6917.886,95.438,540.542,538.959,0.0
52665.0,STARLINK-4064,PAYLOAD,2024-07-25 14:35:34,15.08840293,0.0001174,53.2171,292.0811,74.1936,285.9185,0.00014357,1.998e-05,0.0,0 STARLINK-4064,1 52665U 22053K   24207.60803677  .00001998  00000-0  14357-3 0  9998,2 52665  53.2171 292.0811 0001174  74.1936 285.9185 15.08840293121665,6917.879,95.438,540.557,538.932,0.0
